LEMUR-2-ARIANNA         
1 62699U 25009CU  26065.20727123  .00009108  00000+0  72132-3 0  9996
2 62699  97.7010 147.5424 0004454 154.0621 206.0827 15.00801092 62101
LEMUR-2-ALISIA          
1 62706U 25009DB  26065.20477294  .00009042  00000+0  71106-3 0  9993
2 62706  97.7058 148.1933 0006438 167.2754 192.8633 15.01066900 84700
LEMUR-2-ROUNDTRIPPER    
1 62711U 25009DG  26065.23066659  .00010277  00000+0  78819-3 0  9991
2 62711  97.7303 148.1863 0004860 133.0494 227.1138 15.01990374 62169
LEMUR-2-MYNAMEISJEFF    
1 62712U 25009DH  26065.22920764  .00010871  00000+0  83370-3 0  9995
2 62712  97.7352 148.5049 0004044 159.1824 200.9565 15.01981468 62161
LEMUR-2-LEIA-PHILIP     
1 63246U 25052AN  26065.27218652  .00006620  00000+0  58620-3 0  9994
2 63246  97.6959 318.9246 0002949 189.4131 170.7036 14.96584046 53270
LEMUR-2-LIA-MARTIN      
1 63248U 25052AQ  26065.16026711  .00006223  00000+0  54904-3 0  9997
2 63248  97.7007 319.1739 0003310 152.7807 207.3589 14.96749598 53267
LEMUR-2-DELOITTE-1      
1 63259U 25052BB  26065.26271986  .00006265  00000+0  55268-3 0  9996
2 63259  97.7049 319.5872 0003257  86.1724 273.9870 14.96751587 53291
LEMUR-2-EMERSONROSE     
1 63261U 25052BD  26065.27220025  .00006665  00000+0  56653-3 0  9991
2 63261  97.7030 319.9492 0003113  57.8630 302.2894 14.98179639 53328
LEMUR-2-MARACHE-FRAN    
1 63262U 25052BE  26065.23740638  .00008125  00000+0  67793-3 0  9995
2 63262  97.6995 320.1054 0002328  43.8007 316.3400 14.98833096 53330
LEMUR-2-THEFALCONER     
1 63264U 25052BG  26065.27393425  .00005742  00000+0  51077-3 0  9999
2 63264  97.6984 319.3302 0002537  25.9624 334.1724 14.96460850 53298
LEMUR-2-UNTITLED-SC     
1 63351U 25061A   26064.92310640  .00005458  00000+0  31496-3 0  9992
2 63351  97.5557  41.1560 0017108 260.7576  99.1720 15.12646284 51974
LEMUR-2-ESPERANZA       
1 63352U 25061B   26064.97223200  .00004804  00000+0  27713-3 0  9994
2 63352  97.5560  41.2754 0016760 259.7281 100.2060 15.12721024 51987
LEMUR-2-KREMPEL-BRO2    
1 63353U 25061C   26064.96219549  .00005509  00000+0  31353-3 0  9993
2 63353  97.5606  41.6674 0017799 251.8655 108.0638 15.13125460 51996
LEMUR-2-THERMORAPTOR    
1 63354U 25061D   26065.14739297  .00006000  00000+0  34041-3 0  9996
2 63354  97.5616  41.9084 0017549 250.2120 109.7219 15.13206140 52022
LEMUR-2-NEUROSPICY      
1 63355U 25061E   26065.19293143  .00005424  00000+0  30743-3 0  9991
2 63355  97.5543  41.6603 0015217 253.7123 106.2434 15.13319945 52037
LEMUR-2-TILLINFINITY    
1 63356U 25061F   26064.93739274  .00006102  00000+0  33969-3 0  9990
2 63356  97.5527  41.6255 0016628 241.9529 118.0021 15.13893526 52012
