[{"OBJECT_NAME":"LEMUR-2-ARIANNA","OBJECT_ID":"2025-009CU","EPOCH":"2026-03-06T04:58:28.234272","MEAN_MOTION":15.00801092,"ECCENTRICITY":0.0004454,"INCLINATION":97.701,"RA_OF_ASC_NODE":147.5424,"ARG_OF_PERICENTER":154.0621,"MEAN_ANOMALY":206.0827,"EPHEMERIS_TYPE":0,"CLASSIFICATION_TYPE":"U","NORAD_CAT_ID":62699,"ELEMENT_SET_NO":999,"REV_AT_EPOCH":6210,"BSTAR":0.00072132414,"MEAN_MOTION_DOT":9.108e-5,"MEAN_MOTION_DDOT":0},{"OBJECT_NAME":"LEMUR-2-ALISIA","OBJECT_ID":"2025-009DB","EPOCH":"2026-03-06T04:54:52.382016","MEAN_MOTION":15.010669,"ECCENTRICITY":0.00064387,"INCLINATION":97.7058,"RA_OF_ASC_NODE":148.1933,"ARG_OF_PERICENTER":167.2754,"MEAN_ANOMALY":192.8633,"EPHEMERIS_TYPE":0,"CLASSIFICATION_TYPE":"U","NORAD_CAT_ID":62706,"ELEMENT_SET_NO":999,"REV_AT_EPOCH":8470,"BSTAR":0.00071106366,"MEAN_MOTION_DOT":9.042e-5,"MEAN_MOTION_DDOT":0},{"OBJECT_NAME":"LEMUR-2-ROUNDTRIPPER","OBJECT_ID":"2025-009DG","EPOCH":"2026-03-06T05:32:09.593376","MEAN_MOTION":15.01990374,"ECCENTRICITY":0.00048606,"INCLINATION":97.7303,"RA_OF_ASC_NODE":148.1863,"ARG_OF_PERICENTER":133.0494,"MEAN_ANOMALY":227.1138,"EPHEMERIS_TYPE":0,"CLASSIFICATION_TYPE":"U","NORAD_CAT_ID":62711,"ELEMENT_SET_NO":999,"REV_AT_EPOCH":6216,"BSTAR":0.00078818541,"MEAN_MOTION_DOT":0.00010277,"MEAN_MOTION_DDOT":0},{"OBJECT_NAME":"LEMUR-2-MYNAMEISJEFF","OBJECT_ID":"2025-009DH","EPOCH":"2026-03-06T05:30:03.540096","MEAN_MOTION":15.01981468,"ECCENTRICITY":0.00040449,"INCLINATION":97.7352,"RA_OF_ASC_NODE":148.5049,"ARG_OF_PERICENTER":159.1824,"MEAN_ANOMALY":200.9565,"EPHEMERIS_TYPE":0,"CLASSIFICATION_TYPE":"U","NORAD_CAT_ID":62712,"ELEMENT_SET_NO":999,"REV_AT_EPOCH":6216,"BSTAR":0.00083370029,"MEAN_MOTION_DOT":0.00010871,"MEAN_MOTION_DDOT":0},{"OBJECT_NAME":"LEMUR-2-LEIA-PHILIP","OBJECT_ID":"2025-052AN","EPOCH":"2026-03-06T06:31:56.915328","MEAN_MOTION":14.96584046,"ECCENTRICITY":0.00029496,"INCLINATION":97.6959,"RA_OF_ASC_NODE":318.9246,"ARG_OF_PERICENTER":189.4131,"MEAN_ANOMALY":170.7036,"EPHEMERIS_TYPE":0,"CLASSIFICATION_TYPE":"U","NORAD_CAT_ID":63246,"ELEMENT_SET_NO":999,"REV_AT_EPOCH":5327,"BSTAR":0.00058619646,"MEAN_MOTION_DOT":6.62e-5,"MEAN_MOTION_DDOT":0},{"OBJECT_NAME":"LEMUR-2-LIA-MARTIN","OBJECT_ID":"2025-052AQ","EPOCH":"2026-03-06T03:50:47.078304","MEAN_MOTION":14.96749598,"ECCENTRICITY":0.00033108,"INCLINATION":97.7007,"RA_OF_ASC_NODE":319.1739,"ARG_OF_PERICENTER":152.7807,"MEAN_ANOMALY":207.3589,"EPHEMERIS_TYPE":0,"CLASSIFICATION_TYPE":"U","NORAD_CAT_ID":63248,"ELEMENT_SET_NO":999,"REV_AT_EPOCH":5326,"BSTAR":0.00054903858,"MEAN_MOTION_DOT":6.223e-5,"MEAN_MOTION_DDOT":0},{"OBJECT_NAME":"LEMUR-2-DELOITTE-1","OBJECT_ID":"2025-052BB","EPOCH":"2026-03-06T06:18:18.995904","MEAN_MOTION":14.96751587,"ECCENTRICITY":0.00032579,"INCLINATION":97.7049,"RA_OF_ASC_NODE":319.5872,"ARG_OF_PERICENTER":86.1724,"MEAN_ANOMALY":273.987,"EPHEMERIS_TYPE":0,"CLASSIFICATION_TYPE":"U","NORAD_CAT_ID":63259,"ELEMENT_SET_NO":999,"REV_AT_EPOCH":5329,"BSTAR":0.00055267934,"MEAN_MOTION_DOT":6.265e-5,"MEAN_MOTION_DDOT":0},{"OBJECT_NAME":"LEMUR-2-EMERSONROSE","OBJECT_ID":"2025-052BD","EPOCH":"2026-03-06T06:31:58.101600","MEAN_MOTION":14.98179639,"ECCENTRICITY":0.00031134,"INCLINATION":97.703,"RA_OF_ASC_NODE":319.9492,"ARG_OF_PERICENTER":57.863,"MEAN_ANOMALY":302.2894,"EPHEMERIS_TYPE":0,"CLASSIFICATION_TYPE":"U","NORAD_CAT_ID":63261,"ELEMENT_SET_NO":999,"REV_AT_EPOCH":5332,"BSTAR":0.00056652856,"MEAN_MOTION_DOT":6.665e-5,"MEAN_MOTION_DDOT":0},{"OBJECT_NAME":"LEMUR-2-MARACHE-FRAN","OBJECT_ID":"2025-052BE","EPOCH":"2026-03-06T05:41:51.911232","MEAN_MOTION":14.98833096,"ECCENTRICITY":0.00023282,"INCLINATION":97.6995,"RA_OF_ASC_NODE":320.1054,"ARG_OF_PERICENTER":43.8007,"MEAN_ANOMALY":316.34,"EPHEMERIS_TYPE":0,"CLASSIFICATION_TYPE":"U","NORAD_CAT_ID":63262,"ELEMENT_SET_NO":999,"REV_AT_EPOCH":5333,"BSTAR":0.00067793327,"MEAN_MOTION_DOT":8.125e-5,"MEAN_MOTION_DDOT":0},{"OBJECT_NAME":"LEMUR-2-THEFALCONER","OBJECT_ID":"2025-052BG","EPOCH":"2026-03-06T06:34:27.919200","MEAN_MOTION":14.9646085,"ECCENTRICITY":0.00025377,"INCLINATION":97.6984,"RA_OF_ASC_NODE":319.3302,"ARG_OF_PERICENTER":25.9624,"MEAN_ANOMALY":334.1724,"EPHEMERIS_TYPE":0,"CLASSIFICATION_TYPE":"U","NORAD_CAT_ID":63264,"ELEMENT_SET_NO":999,"REV_AT_EPOCH":5329,"BSTAR":0.00051076984,"MEAN_MOTION_DOT":5.742e-5,"MEAN_MOTION_DDOT":0},{"OBJECT_NAME":"LEMUR-2-UNTITLED-SC","OBJECT_ID":"2025-061A","EPOCH":"2026-03-05T22:09:16.392960","MEAN_MOTION":15.12646284,"ECCENTRICITY":0.00171083,"INCLINATION":97.5557,"RA_OF_ASC_NODE":41.156,"ARG_OF_PERICENTER":260.7576,"MEAN_ANOMALY":99.172,"EPHEMERIS_TYPE":0,"CLASSIFICATION_TYPE":"U","NORAD_CAT_ID":63351,"ELEMENT_SET_NO":999,"REV_AT_EPOCH":5197,"BSTAR":0.00031495763,"MEAN_MOTION_DOT":5.458e-5,"MEAN_MOTION_DDOT":0},{"OBJECT_NAME":"LEMUR-2-ESPERANZA","OBJECT_ID":"2025-061B","EPOCH":"2026-03-05T23:20:00.844800","MEAN_MOTION":15.12721024,"ECCENTRICITY":0.00167609,"INCLINATION":97.556,"RA_OF_ASC_NODE":41.2754,"ARG_OF_PERICENTER":259.7281,"MEAN_ANOMALY":100.206,"EPHEMERIS_TYPE":0,"CLASSIFICATION_TYPE":"U","NORAD_CAT_ID":63352,"ELEMENT_SET_NO":999,"REV_AT_EPOCH":5198,"BSTAR":0.00027713343,"MEAN_MOTION_DOT":4.804e-5,"MEAN_MOTION_DDOT":0},{"OBJECT_NAME":"LEMUR-2-KREMPEL-BRO2","OBJECT_ID":"2025-061C","EPOCH":"2026-03-05T23:05:33.690336","MEAN_MOTION":15.1312546,"ECCENTRICITY":0.00177993,"INCLINATION":97.5606,"RA_OF_ASC_NODE":41.6674,"ARG_OF_PERICENTER":251.8655,"MEAN_ANOMALY":108.0638,"EPHEMERIS_TYPE":0,"CLASSIFICATION_TYPE":"U","NORAD_CAT_ID":63353,"ELEMENT_SET_NO":999,"REV_AT_EPOCH":5199,"BSTAR":0.00031353349,"MEAN_MOTION_DOT":5.509e-5,"MEAN_MOTION_DDOT":0},{"OBJECT_NAME":"LEMUR-2-THERMORAPTOR","OBJECT_ID":"2025-061D","EPOCH":"2026-03-06T03:32:14.752608","MEAN_MOTION":15.1320614,"ECCENTRICITY":0.00175497,"INCLINATION":97.5616,"RA_OF_ASC_NODE":41.9084,"ARG_OF_PERICENTER":250.212,"MEAN_ANOMALY":109.7219,"EPHEMERIS_TYPE":0,"CLASSIFICATION_TYPE":"U","NORAD_CAT_ID":63354,"ELEMENT_SET_NO":999,"REV_AT_EPOCH":5202,"BSTAR":0.00034040565,"MEAN_MOTION_DOT":6.0e-5,"MEAN_MOTION_DDOT":0},{"OBJECT_NAME":"LEMUR-2-NEUROSPICY","OBJECT_ID":"2025-061E","EPOCH":"2026-03-06T04:37:49.275552","MEAN_MOTION":15.13319945,"ECCENTRICITY":0.00152178,"INCLINATION":97.5543,"RA_OF_ASC_NODE":41.6603,"ARG_OF_PERICENTER":253.7123,"MEAN_ANOMALY":106.2434,"EPHEMERIS_TYPE":0,"CLASSIFICATION_TYPE":"U","NORAD_CAT_ID":63355,"ELEMENT_SET_NO":999,"REV_AT_EPOCH":5203,"BSTAR":0.00030742637,"MEAN_MOTION_DOT":5.424e-5,"MEAN_MOTION_DDOT":0},{"OBJECT_NAME":"LEMUR-2-TILLINFINITY","OBJECT_ID":"2025-061F","EPOCH":"2026-03-05T22:29:50.732736","MEAN_MOTION":15.13893526,"ECCENTRICITY":0.00166288,"INCLINATION":97.5527,"RA_OF_ASC_NODE":41.6255,"ARG_OF_PERICENTER":241.9529,"MEAN_ANOMALY":118.0021,"EPHEMERIS_TYPE":0,"CLASSIFICATION_TYPE":"U","NORAD_CAT_ID":63356,"ELEMENT_SET_NO":999,"REV_AT_EPOCH":5201,"BSTAR":0.00033968505,"MEAN_MOTION_DOT":6.102e-5,"MEAN_MOTION_DDOT":0}]
